*******************************************************************************
 Revised: Apr 06, 2006               Mab / (Uranus)                         726

 Irregular Uranian satellite.
*******************************************************************************
 
 
*******************************************************************************
Ephemeris / WWW_USER Sun Nov 12 09:47:48 2017 Pasadena, USA      / Horizons    
*******************************************************************************
Target body name: Mab (726)                       {source: ura074x}
Center body name: Solar System Barycenter (0)     {source: DE431mx}
Center-site name: BODY CENTER
*******************************************************************************
Start time      : A.D. 2017-Jul-10 00:00:00.0000 TDB
Stop  time      : A.D. 2020-Aug-13 00:00:00.0000 TDB
Step-size       : 1440 minutes
*******************************************************************************
Center geodetic : 0.00000000,0.00000000,0.0000000 {E-lon(deg),Lat(deg),Alt(km)}
Center cylindric: 0.00000000,0.00000000,0.0000000 {E-lon(deg),Dxy(km),Dz(km)}
Center radii    : (undefined)                                                  
Output units    : KM-S                                                         
Output type     : GEOMETRIC cartesian states
Output format   : 3 (position, velocity, LT, range, range-rate)
Reference frame : ICRF/J2000.0                                                 
Coordinate systm: Ecliptic and Mean Equinox of Reference Epoch                 
*******************************************************************************
            JDTDB,            Calendar Date (TDB),                      X,                      Y,                      Z,                     VX,                     VY,                     VZ,                     LT,                     RG,                     RR,
**************************************************************************************************************************************************************************************************************************************************************************
$$SOE
2459017.500000000, A.D. 2020-Jun-17 00:00:00.0000,  2.367834526199312E+09,  1.778776481075373E+09, -2.411365738786054E+07, -7.321741384991585E+00,  6.776620510569441E+00,  6.910752927885828E+00,  9.878942942585085E+03,  2.961632587199335E+09, -1.839938691199970E+00,
2459018.500000000, A.D. 2020-Jun-18 00:00:00.0000,  2.367468237531865E+09,  1.779228166150976E+09, -2.405808425607407E+07, -3.462478595024563E+00,  6.031125744939272E+00,  7.705977419414931E+00,  9.878869695978641E+03,  2.961610628419149E+09,  7.928286134498661E-01,
2459019.500000000, A.D. 2020-Jun-19 00:00:00.0000,  2.367127500139987E+09,  1.779673883501851E+09, -2.400412509005296E+07,  2.049886085247996E-01,  5.043085574070483E+00,  6.438248556064638E+00,  9.878853036512553E+03,  2.961605634036861E+09,  3.142125754436693E+00,
2459020.500000000, A.D. 2020-Jun-20 00:00:00.0000,  2.366807638268050E+09,  1.780112896480642E+09, -2.396460616734612E+07,  2.690484595145517E+00,  4.080625396615727E+00,  3.461563594191459E+00,  9.878879330713544E+03,  2.961613516840008E+09,  4.574830003765457E+00,
2459021.500000000, A.D. 2020-Jun-21 00:00:00.0000,  2.366498367157494E+09,  1.780546252225126E+09, -2.394843009934521E+07,  3.334105087751549E+00,  3.401834759123671E+00, -4.133604376547322E-01,  9.878923471254970E+03,  2.961626749841420E+09,  4.712672760480940E+00,
2459022.500000000, A.D. 2020-Jun-22 00:00:00.0000,  2.366186569237493E+09,  1.780976498820847E+09, -2.395817343931997E+07,  1.976163467407360E+00,  3.185754146571041E+00, -4.146357335391631E+00,  9.878955659627556E+03,  2.961636399672756E+09,  3.528138656925760E+00,
2459023.500000000, A.D. 2020-Jun-23 00:00:00.0000,  2.365859886726127E+09,  1.781406973827155E+09, -2.398948050592768E+07, -1.013581794373056E+00,  3.487277443290253E+00, -6.747394383332236E+00,  9.878949544656485E+03,  2.961634566450548E+09,  1.342547247047547E+00,
2459024.500000000, A.D. 2020-Jun-24 00:00:00.0000,  2.365509903747293E+09,  1.781840926878370E+09, -2.403231301559937E+07, -4.840983168687631E+00,  4.225692258975164E+00, -7.527953011627512E+00,  9.878888973098143E+03,  2.961616407554188E+09, -1.263150786606008E+00,
2459025.500000000, A.D. 2020-Jun-25 00:00:00.0000,  2.365134375314487E+09,  1.782280668241513E+09, -2.407354301907122E+07, -8.490652670189865E+00,  5.205441794104077E+00, -6.276352778554960E+00,  9.878772279493431E+03,  2.961581423691599E+09, -3.597024915809167E+00,
2459026.500000000, A.D. 2020-Jun-26 00:00:00.0000,  2.364737825428387E+09,  1.782726954293615E+09, -2.410044205265367E+07, -1.098690450926803E+01,  6.165843491851166E+00, -3.316106111010972E+00,  9.878612725266863E+03,  2.961533590537831E+09, -5.034288219125150E+00,
2459027.500000000, A.D. 2020-Jun-27 00:00:00.0000,  2.364330405630500E+09,  1.783178778020370E+09, -2.410402859353876E+07, -1.165010782642004E+01,  6.848130177486603E+00,  5.685473241521839E-01,  9.878435112620946E+03,  2.961480343606140E+09, -5.182194801784235E+00,
2459028.500000000, A.D. 2020-Jun-28 00:00:00.0000,  2.363925280799310E+09,  1.783633607026231E+09, -2.408153709565246E+07, -1.028795442671679E+01,  7.065197633848863E+00,  4.331036128091757E+00,  9.878269354274329E+03,  2.961430650503974E+09, -3.992168319788697E+00,
2459029.500000000, A.D. 2020-Jun-29 00:00:00.0000,  2.363535031527529E+09,  1.784088055703538E+09, -2.403731593633497E+07, -7.262679497175087E+00,  6.755729462772353E+00,  6.946672112240259E+00,  9.878142260800385E+03,  2.961392548839025E+09, -1.782864121330802E+00,
2459030.500000000, A.D. 2020-Jun-30 00:00:00.0000,  2.363168183998162E+09,  1.784538822086936E+09, -2.398160810549343E+07, -3.396391434556967E+00,  6.003111871067535E+00,  7.701361023423009E+00,  9.878070151424276E+03,  2.961370930991915E+09,  8.448286435773887E-01,
2459031.500000000, A.D. 2020-Jul-01 00:00:00.0000,  2.362826883264434E+09,  1.784983583141994E+09, -2.392779759174621E+07,  2.571670251880187E-01,  5.012837384542747E+00,  6.393946157087246E+00,  9.878054393826826E+03,  2.961366206983044E+09,  3.175048234609363E+00,
2459032.500000000, A.D. 2020-Jul-02 00:00:00.0000,  2.362506289309821E+09,  1.785421642323780E+09, -2.388868832516789E+07,  2.710885740009150E+00,  4.053852345670167E+00,  3.389619577590991E+00,  9.878081013371955E+03,  2.961374187321909E+09,  4.579410064268365E+00,
2459033.500000000, A.D. 2020-Jul-03 00:00:00.0000,  2.362196025084015E+09,  1.785854087833364E+09, -2.387303694103193E+07,  3.314181175812070E+00,  3.383137353009501E+00, -4.934912044792401E-01,  9.878124789303445E+03,  2.961387311016012E+09,  4.687774663448894E+00,
2459034.500000000, A.D. 2020-Jul-04 00:00:00.0000,  2.361882961100538E+09,  1.786283487410537E+09, -2.388329578143322E+07,  1.917601197080634E+00,  3.177655733521135E+00, -4.213288698872521E+00,  9.878156004170001E+03,  2.961396668997583E+09,  3.480104805659562E+00,
2459035.500000000, A.D. 2020-Jul-05 00:00:00.0000,  2.361554767683310E+09,  1.786713192323119E+09, -2.391496019440806E+07, -1.098441582660380E+00,  3.489482637581220E+00, -6.782637863255673E+00,  9.878148483681862E+03,  2.961394414411958E+09,  1.284152223155860E+00,
2459036.500000000, A.D. 2020-Jul-06 00:00:00.0000,  2.361203163695704E+09,  1.787146437403428E+09, -2.395787746945417E+07, -4.932304435901052E+00,  4.234959436169131E+00, -7.522130084436162E+00,  9.878086460291126E+03,  2.961375820267196E+09, -1.316099723620474E+00,
2459037.500000000, A.D. 2020-Jul-07 00:00:00.0000,  2.360826044634442E+09,  1.787585501835551E+09, -2.399891222915220E+07, -8.567420765766887E+00,  5.216773365403272E+00, -6.230982149180059E+00,  9.877968605275510E+03,  2.961340488222377E+09, -3.630526409869810E+00,
2459038.500000000, A.D. 2020-Jul-08 00:00:00.0000,  2.360428079721074E+09,  1.788031104734803E+09, -2.402536820682287E+07, -1.103150153981833E+01,  6.173548606423665E+00, -3.243509788775227E+00,  9.877808476797001E+03,  2.961292482912209E+09, -5.039232912772835E+00,
2459039.500000000, A.D. 2020-Jul-09 00:00:00.0000,  2.360019517438153E+09,  1.788482197315204E+09, -2.402840780266678E+07, -1.165427917403441E+01,  6.847619694363858E+00,  6.485073287569985E-01,  9.877631001842721E+03,  2.961239277259432E+09, -5.157659197244197E+00,
2459040.500000000, A.D. 2020-Jul-10 00:00:00.0000,  2.359613508925049E+09,  1.788936230586241E+09, -2.400540783868766E+07, -1.025419102282293E+01,  7.054179806741351E+00,  4.397349130034311E+00,  9.877465950283233E+03,  2.961189796046716E+09, -3.945039254853890E+00,
2459041.500000000, A.D. 2020-Jul-11 00:00:00.0000,  2.359222598206637E+09,  1.789389811854617E+09, -2.396083162157631E+07, -7.203119017080871E+00,  6.734542810664547E+00,  6.981466325426302E+00,  9.877339944396623E+03,  2.961152020432246E+09, -1.725787995212942E+00,
2459042.500000000, A.D. 2020-Jul-12 00:00:00.0000,  2.358855188578947E+09,  1.789839651374866E+09, -2.390503683296716E+07, -3.330707321611001E+00,  5.974987042506343E+00,  7.695422970802994E+00,  9.877268943467581E+03,  2.961130734889209E+09,  8.961620900692440E-01,
2459043.500000000, A.D. 2020-Jul-13 00:00:00.0000,  2.358513282282037E+09,  1.790283459711861E+09, -2.385140061474502E+07,  3.083704133730256E-01,  4.982710658044090E+00,  6.348998909787982E+00,  9.877253977680975E+03,  2.961126248259257E+09,  3.206998580527274E+00,
2459044.500000000, A.D. 2020-Jul-14 00:00:00.0000,  2.358191923928554E+09,  1.790720571602194E+09, -2.381269062928736E+07,  2.730307116112530E+00,  4.027267921548964E+00,  3.317458886201219E+00,  9.877280845107149E+03,  2.961134302910989E+09,  4.583143044224167E+00,
2459045.500000000, A.D. 2020-Jul-15 00:00:00.0000,  2.357880636052851E+09,  1.791152114200789E+09, -2.379754452600586E+07,  3.293155470506036E+00,  3.364752847360750E+00, -5.731245359817910E-01,  9.877324187975746E+03,  2.961147296776103E+09,  4.662142495722949E+00,
